$$SOE
2460728.500000000, A.D. 2025-Feb-22 00:00:00.0000, -9.099923878690532E+07, 5.374793112438866E+08, 2.666750788302809E+06,
2460735.500000000, A.D. 2025-Mar-01 00:00:00.0000, -9.957813550565705E+07, 5.361064378638293E+08, 3.191249682323188E+06,
2460742.500000000, A.D. 2025-Mar-08 00:00:00.0000, -1.081268642949669E+08, 5.345733691043116E+08, 3.714777628527552E+06,
2460749.500000000, A.D. 2025-Mar-15 00:00:00.0000, -1.166428915743862E+08, 5.328806719006254E+08, 4.237178095343173E+06,
2460756.500000000, A.D. 2025-Mar-22 00:00:00.0000, -1.251236935524014E+08, 5.310289411836354E+08, 4.758295212655932E+06,
2460763.500000000, A.D. 2025-Mar-29 00:00:00.0000, -1.335667568007870E+08, 5.290187980047762E+08, 5.277973689391047E+06,
2460770.500000000, A.D. 2025-Apr-05 00:00:00.0000, -1.419695771387992E+08, 5.268508885683606E+08, 5.796058648797274E+06,
2460777.500000000, A.D. 2025-Apr-12 00:00:00.0000, -1.503296587532287E+08, 5.245258842759014E+08, 6.312395566236734E+06,
2460784.500000000, A.D. 2025-Apr-19 00:00:00.0000, -1.586445137415507E+08, 5.220444819008044E+08, 6.826830254366159E+06,
2460791.500000000, A.D. 2025-Apr-26 00:00:00.0000, -1.669116618069601E+08, 5.194074036901447E+08, 7.339208853996336E+06,
2460798.500000000, A.D. 2025-May-03 00:00:00.0000, -1.751286299921721E+08, 5.166153974127570E+08, 7.849377821591407E+06,
2460805.500000000, A.D. 2025-May-10 00:00:00.0000, -1.832929524239234E+08, 5.136692363624627E+08, 8.357183911354840E+06,
2460812.500000000, A.D. 2025-May-17 00:00:00.0000, -1.914021700319444E+08, 5.105697192755605E+08, 8.862474145078748E+06,
2460819.500000000, A.D. 2025-May-24 00:00:00.0000, -1.994538300689871E+08, 5.073176701082253E+08, 9.365095749304593E+06,
2460826.500000000, A.D. 2025-May-31 00:00:00.0000, -2.074454850147630E+08, 5.039139379848906E+08, 9.864896046878070E+06,
2460833.500000000, A.D. 2025-Jun-07 00:00:00.0000, -2.153746912655810E+08, 5.003593985229158E+08, 1.036172243813509E+07,
2460840.500000000, A.D. 2025-Jun-14 00:00:00.0000, -2.232390099746102E+08, 4.966549558676381E+08, 1.085542263407636E+07,
2460847.500000000, A.D. 2025-Jun-21 00:00:00.0000, -2.310360088254952E+08, 4.928015421659487E+08, 1.134584476265025E+07,
2460854.500000000, A.D. 2025-Jun-28 00:00:00.0000, -2.387632616119722E+08, 4.888001162419452E+08, 1.183283720559958E+07,
2460861.500000000, A.D. 2025-Jul-05 00:00:00.0000, -2.464183471417061E+08, 4.846516636319998E+08, 1.231624848127922E+07,
2460868.500000000, A.D. 2025-Jul-12 00:00:00.0000, -2.539988486557408E+08, 4.803571971748247E+08, 1.279592721690559E+07,
2460875.500000000, A.D. 2025-Jul-19 00:00:00.0000, -2.615023535742206E+08, 4.759177575814782E+08, 1.327172214595878E+07,
2460882.500000000, A.D. 2025-Jul-26 00:00:00.0000, -2.689264533589906E+08, 4.713344139286743E+08, 1.374348210699701E+07,
2460889.500000000, A.D. 2025-Aug-02 00:00:00.0000, -2.762687434283658E+08, 4.666082640971413E+08, 1.421105603980905E+07,
2460896.500000000, A.D. 2025-Aug-09 00:00:00.0000, -2.835268231013623E+08, 4.617404351406279E+08, 1.467429297574690E+07,
2460903.500000000, A.D. 2025-Aug-16 00:00:00.0000, -2.906982954951819E+08, 4.567320835226313E+08, 1.513304201023409E+07,
2460910.500000000, A.D. 2025-Aug-23 00:00:00.0000, -2.977807670841153E+08, 4.515843952376125E+08, 1.558715223221809E+07,
2460917.500000000, A.D. 2025-Aug-30 00:00:00.0000, -3.047718465919316E+08, 4.462985865310503E+08, 1.603647263903370E+07,
2460924.500000000, A.D. 2025-Sep-06 00:00:00.0000, -3.116691446372232E+08, 4.408759062194682E+08, 1.648085224877843E+07,
2460931.500000000, A.D. 2025-Sep-13 00:00:00.0000, -3.184702758030292E+08, 4.353176371288646E+08, 1.692014036078650E+07,
2460938.500000000, A.D. 2025-Sep-20 00:00:00.0000, -3.251728598568510E+08, 4.296250950068030E+08, 1.735418652990940E+07,
2460945.500000000, A.D. 2025-Sep-27 00:00:00.0000, -3.317745210631104E+08, 4.237996280187635E+08, 1.778284041210058E+07,
2460952.500000000, A.D. 2025-Oct-04 00:00:00.0000, -3.382728876058543E+08, 4.178426173684230E+08, 1.820595171051243E+07,
2460959.500000000, A.D. 2025-Oct-11 00:00:00.0000, -3.446655914956293E+08, 4.117554780988829E+08, 1.862337017943183E+07,
2460966.500000000, A.D. 2025-Oct-18 00:00:00.0000, -3.509502686774469E+08, 4.055396597997082E+08, 1.903494563771084E+07,
2460973.500000000, A.D. 2025-Oct-25 00:00:00.0000, -3.571245592017581E+08, 3.991966472303728E+08, 1.944052797985011E+07,
2460980.500000000, A.D. 2025-Nov-01 00:00:00.0000, -3.631861074209191E+08, 3.927279608760028E+08, 1.983996718237999E+07,
2460987.500000000, A.D. 2025-Nov-08 00:00:00.0000, -3.691325621784100E+08, 3.861351574050273E+08, 2.023311329973525E+07,
2460994.500000000, A.D. 2025-Nov-15 00:00:00.0000, -3.749615768443485E+08, 3.794198299713266E+08, 2.061981643115625E+07,
2461001.500000000, A.D. 2025-Nov-22 00:00:00.0000, -3.806708087956749E+08, 3.725836085817740E+08, 2.099992663952236E+07,
2461008.500000000, A.D. 2025-Nov-29 00:00:00.0000, -3.862579184954149E+08, 3.656281616645815E+08, 2.137329392877272E+07,
2461015.500000000, A.D. 2025-Dec-06 00:00:00.0000, -3.917205704501638E+08, 3.585551987031554E+08, 2.173976847753868E+07,
2461022.500000000, A.D. 2025-Dec-13 00:00:00.0000, -3.970564356130517E+08, 3.513664705660879E+08, 2.209920081367669E+07,
2461029.500000000, A.D. 2025-Dec-20 00:00:00.0000, -4.022631917389265E+08, 3.440637685556910E+08, 2.245144169291769E+07,
2461036.500000000, A.D. 2025-Dec-27 00:00:00.0000, -4.073385227672583E+08, 3.366489247654119E+08, 2.279634199192293E+07,
2461043.500000000, A.D. 2026-Jan-03 00:00:00.0000, -4.122801186944425E+08, 3.291238131313161E+08, 2.313375269933733E+07,
2461050.500000000, A.D. 2026-Jan-10 00:00:00.0000, -4.170856758273020E+08, 3.214903504996987E+08, 2.346352493941818E+07,
2461057.500000000, A.D. 2026-Jan-17 00:00:00.0000, -4.217528971865264E+08, 3.137504976198190E+08, 2.378550999960552E+07,
2461064.500000000, A.D. 2026-Jan-24 00:00:00.0000, -4.262794929835222E+08, 3.059062600848974E+08, 2.409955935694405E+07,
2461071.500000000, A.D. 2026-Jan-31 00:00:00.0000, -4.306631811487120E+08, 2.979596892144708E+08, 2.440552470080848E+07,
2461078.500000000, A.D. 2026-Feb-07 00:00:00.0000, -4.349016878511908E+08, 2.899128828211828E+08, 2.470325794180949E+07,
2461085.500000000, A.D. 2026-Feb-14 00:00:00.0000, -4.389927477580228E+08, 2.817679858469061E+08, 2.499261118260632E+07,
2461092.500000000, A.D. 2026-Feb-21 00:00:00.0000, -4.429341036469752E+08, 2.735271914449553E+08, 2.527343666240843E+07,
2461099.500000000, A.D. 2026-Feb-28 00:00:00.0000, -4.467235064594603E+08, 2.651927436611741E+08, 2.554558686908299E+07,
2461106.500000000, A.D. 2026-Mar-07 00:00:00.0000, -4.503587178550661E+08, 2.567669397635586E+08, 2.580891484848019E+07,
2461113.500000000, A.D. 2026-Mar-14 00:00:00.0000, -4.538375124938635E+08, 2.482521298875469E+08, 2.606327426597337E+07,
2461120.500000000, A.D. 2026-Mar-21 00:00:00.0000, -4.571576782645071E+08, 2.396507168931742E+08, 2.630851929378510E+07,
2461127.500000000, A.D. 2026-Mar-28 00:00:00.0000, -4.603170164703816E+08, 2.309651574607187E+08, 2.654450459273690E+07,
2461134.500000000, A.D. 2026-Apr-04 00:00:00.0000, -4.633133425811183E+08, 2.221979634584703E+08, 2.677108536520800E+07,
2461141.500000000, A.D. 2026-Apr-11 00:00:00.0000, -4.661444872782796E+08, 2.133517032220865E+08, 2.698811742514375E+07,
2461148.500000000, A.D. 2026-Apr-18 00:00:00.0000, -4.688082976381301E+08, 2.044290027377113E+08, 2.719545727034593E+07,
2461155.500000000, A.D. 2026-Apr-25 00:00:00.0000, -4.713026384078215E+08, 1.954325467420773E+08, 2.739296215442266E+07,
2461162.500000000, A.D. 2026-May-02 00:00:00.0000, -4.736253933465049E+08, 1.863650797083185E+08, 2.758049015352249E+07,
2461169.500000000, A.D. 2026-May-09 00:00:00.0000, -4.757744665090041E+08, 1.772294066495347E+08, 2.775790021135096E+07,
2461176.500000000, A.D. 2026-May-16 00:00:00.0000, -4.777477830962515E+08, 1.680283938766314E+08, 2.792505213940631E+07,
2461183.500000000, A.D. 2026-May-23 00:00:00.0000, -4.795432898226616E+08, 1.587649707307724E+08, 2.808180665145935E+07,
2461190.500000000, A.D. 2026-May-30 00:00:00.0000, -4.811589568812099E+08, 1.494421326076985E+08, 2.822802564915895E+07,
2461197.500000000, A.D. 2026-Jun-06 00:00:00.0000, -4.825927818262361E+08, 1.400629419984029E+08, 2.836357252041474E+07,
2461204.500000000, A.D. 2026-Jun-13 00:00:00.0000, -4.838427917089331E+08, 1.306305277429681E+08, 2.848831213060399E+07,
2461211.500000000, A.D. 2026-Jun-20 00:00:00.0000, -4.849070439665428E+08, 1.211480854192464E+08, 2.860211079157721E+07,
2461218.500000000, A.D. 2026-Jun-27 00:00:00.0000, -4.857836277663411E+08, 1.116188785211108E+08, 2.870483633630449E+07,
2461225.500000000, A.D. 2026-Jul-04 00:00:00.0000, -4.864706658091077E+08, 1.020462396472032E+08, 2.879635823577669E+07,
2461232.500000000, A.D. 2026-Jul-11 00:00:00.0000, -4.869663163424593E+08, 9.243357156497487E+07, 2.887654772408601E+07,
2461239.500000000, A.D. 2026-Jul-18 00:00:00.0000, -4.872687752948719E+08, 8.278434817252558E+07, 2.894527792527850E+07,
2461246.500000000, A.D. 2026-Jul-25 00:00:00.0000, -4.873762785088342E+08, 7.310211535740891E+07, 2.900242397994622E+07,
2461253.500000000, A.D. 2026-Aug-01 00:00:00.0000, -4.872871040274256E+08, 6.339049170022516E+07, 2.904786316320590E+07,
2461260.500000000, A.D. 2026-Aug-08 00:00:00.0000, -4.869995742215129E+08, 5.365316898252691E+07, 2.908147497144245E+07,
2461267.500000000, A.D. 2026-Aug-15 00:00:00.0000, -4.865120573443112E+08, 4.389391294431235E+07, 2.910314117660429E+07,
2461274.500000000, A.D. 2026-Aug-22 00:00:00.0000, -4.858229692760230E+08, 3.411656550662339E+07, 2.911274601771966E+07,
2461281.500000000, A.D. 2026-Aug-29 00:00:00.0000, -4.849307777501335E+08, 2.432504708010279E+07, 2.911017662748346E+07,
2461288.500000000, A.D. 2026-Sep-05 00:00:00.0000, -4.838340069310907E+08, 1.452335608545141E+07, 2.909532326403137E+07,
2461295.500000000, A.D. 2026-Sep-12 00:00:00.0000, -4.825312398898178E+08, 4.715568175993490E+06, 2.906807932693600E+07,
$$EOE